STARLINK-5761           
1 55599U 23020AG  26068.61914272  .00046654  00000+0  34112-2 0  9991
2 55599  43.0004 352.4704 0001047 272.4252  87.6471 15.02916645169050
ION SCV-014             
1 62630U 25009X   26068.71776957  .00001812  00000+0  13229-3 0  9995
2 62630  97.4923 144.8636 0006450 112.6479 247.5430 15.04884649 63025
