[{"OBJECT_NAME":"STARLINK-5761","OBJECT_ID":"2023-020AG","EPOCH":"2026-03-09T14:51:33.931008","MEAN_MOTION":15.02916645,"ECCENTRICITY":0.0001047,"INCLINATION":43.0004,"RA_OF_ASC_NODE":352.4704,"ARG_OF_PERICENTER":272.4252,"MEAN_ANOMALY":87.6471,"EPHEMERIS_TYPE":0,"CLASSIFICATION_TYPE":"U","NORAD_CAT_ID":55599,"ELEMENT_SET_NO":999,"REV_AT_EPOCH":16905,"BSTAR":0.0034112,"MEAN_MOTION_DOT":0.00046654,"MEAN_MOTION_DDOT":0},{"OBJECT_NAME":"ION SCV-014","OBJECT_ID":"2025-009X","EPOCH":"2026-03-09T17:13:35.291712","MEAN_MOTION":15.0488465,"ECCENTRICITY":0.00064503,"INCLINATION":97.4923,"RA_OF_ASC_NODE":144.8636,"ARG_OF_PERICENTER":112.6479,"MEAN_ANOMALY":247.543,"EPHEMERIS_TYPE":0,"CLASSIFICATION_TYPE":"U","NORAD_CAT_ID":62630,"ELEMENT_SET_NO":999,"REV_AT_EPOCH":6302,"BSTAR":0.0001322874,"MEAN_MOTION_DOT":1.812e-5,"MEAN_MOTION_DDOT":0}]
